TEVEL2-2                
1 63219U 25052K   26068.64848259  .00020339  00000+0  69428-3 0  9991
2 63219  97.3987 324.7700 0004693 105.7930 254.3828 15.30343745 54855
STARLINK-35530          
1 65921U 25225M   26068.55144491  .00029574  00000+0  10077-2 0  9997
2 65921  53.1584 166.5546 0001307  62.5628 297.5505 15.30167790 24383
