[{"OBJECT_NAME":"TEVEL2-2","OBJECT_ID":"2025-052K","EPOCH":"2026-03-09T15:33:48.895776","MEAN_MOTION":15.30343745,"ECCENTRICITY":0.0004693,"INCLINATION":97.3987,"RA_OF_ASC_NODE":324.77,"ARG_OF_PERICENTER":105.793,"MEAN_ANOMALY":254.3828,"EPHEMERIS_TYPE":0,"CLASSIFICATION_TYPE":"U","NORAD_CAT_ID":63219,"ELEMENT_SET_NO":999,"REV_AT_EPOCH":5485,"BSTAR":0.00069428,"MEAN_MOTION_DOT":0.00020339,"MEAN_MOTION_DDOT":0},{"OBJECT_NAME":"STARLINK-35530","OBJECT_ID":"2025-225M","EPOCH":"2026-03-09T13:14:04.840224","MEAN_MOTION":15.3016779,"ECCENTRICITY":0.00013076,"INCLINATION":53.1584,"RA_OF_ASC_NODE":166.5546,"ARG_OF_PERICENTER":62.5628,"MEAN_ANOMALY":297.5505,"EPHEMERIS_TYPE":0,"CLASSIFICATION_TYPE":"U","NORAD_CAT_ID":65921,"ELEMENT_SET_NO":999,"REV_AT_EPOCH":2438,"BSTAR":0.0010076506,"MEAN_MOTION_DOT":0.00029574,"MEAN_MOTION_DDOT":0}]
